{
  "links" : {
    "next" : "https://api.nasa.gov/neo/rest/v1/feed?start_date=2008-03-23&end_date=2008-03-23&detailed=true&api_key=t0TVs3DtDT2H8Oy2Zy8m2eVrNsAVKAexjcZXUckd",
    "prev" : "https://api.nasa.gov/neo/rest/v1/feed?start_date=2008-03-21&end_date=2008-03-21&detailed=true&api_key=t0TVs3DtDT2H8Oy2Zy8m2eVrNsAVKAexjcZXUckd",
    "self" : "https://api.nasa.gov/neo/rest/v1/feed?start_date=2008-03-22&end_date=2008-03-22&detailed=true&api_key=t0TVs3DtDT2H8Oy2Zy8m2eVrNsAVKAexjcZXUckd"
  },
  "element_count" : 7,
  "near_earth_objects" : {
    "2008-03-22" : [ {
      "links" : {
        "self" : "https://api.nasa.gov/neo/rest/v1/neo/3368404?api_key=t0TVs3DtDT2H8Oy2Zy8m2eVrNsAVKAexjcZXUckd"
      },
      "neo_reference_id" : "3368404",
      "name" : "(2007 DD)",
      "nasa_jpl_url" : "http://ssd.jpl.nasa.gov/sbdb.cgi?sstr=3368404",
      "absolute_magnitude_h" : 25.8,
      "estimated_diameter" : {
        "kilometers" : {
          "estimated_diameter_min" : 0.0183888672,
          "estimated_diameter_max" : 0.0411187571
        },
        "meters" : {
          "estimated_diameter_min" : 18.388867207,
          "estimated_diameter_max" : 41.1187571041
        },
        "miles" : {
          "estimated_diameter_min" : 0.0114263088,
          "estimated_diameter_max" : 0.0255500032
        },
        "feet" : {
          "estimated_diameter_min" : 60.3309310875,
          "estimated_diameter_max" : 134.9040630575
        }
      },
      "is_potentially_hazardous_asteroid" : false,
      "close_approach_data" : [ {
        "close_approach_date" : "2008-03-22",
        "epoch_date_close_approach" : 1206169200000,
        "relative_velocity" : {
          "kilometers_per_second" : "2.6368029097",
          "kilometers_per_hour" : "9492.4904750799",
          "miles_per_hour" : "5898.2644288073"
        },
        "miss_distance" : {
          "astronomical" : "0.0837806596",
          "lunar" : "32.590675354",
          "kilometers" : "12533409",
          "miles" : "7787899"
        },
        "orbiting_body" : "Earth"
      } ],
      "orbital_data" : {
        "orbit_id" : "18",
        "orbit_determination_date" : "2017-09-08 06:16:57",
        "orbit_uncertainty" : "2",
        "minimum_orbit_intersection" : ".00491651",
        "jupiter_tisserand_invariant" : "6.134",
        "epoch_osculation" : "2458000.5",
        "eccentricity" : ".1158360505604305",
        "semi_major_axis" : ".9874148452383993",
        "inclination" : "2.624300988190335",
        "ascending_node_longitude" : "329.0143592694722",
        "orbital_period" : "358.3834165158025",
        "perihelion_distance" : ".8730366093012444",
        "perihelion_argument" : "77.54507075678622",
        "aphelion_distance" : "1.101793081175554",
        "perihelion_time" : "2458010.314374915595",
        "mean_anomaly" : "350.1413547424608",
        "mean_motion" : "1.004510765313624",
        "equinox" : "J2000"
      }
    }, {
      "links" : {
        "self" : "https://api.nasa.gov/neo/rest/v1/neo/3394069?api_key=t0TVs3DtDT2H8Oy2Zy8m2eVrNsAVKAexjcZXUckd"
      },
      "neo_reference_id" : "3394069",
      "name" : "(2007 VW137)",
      "nasa_jpl_url" : "http://ssd.jpl.nasa.gov/sbdb.cgi?sstr=3394069",
      "absolute_magnitude_h" : 18.2,
      "estimated_diameter" : {
        "kilometers" : {
          "estimated_diameter_min" : 0.6089126221,
          "estimated_diameter_max" : 1.3615700154
        },
        "meters" : {
          "estimated_diameter_min" : 608.9126221057,
          "estimated_diameter_max" : 1361.5700153859
        },
        "miles" : {
          "estimated_diameter_min" : 0.3783606449,
          "estimated_diameter_max" : 0.846040122
        },
        "feet" : {
          "estimated_diameter_min" : 1997.7448871092,
          "estimated_diameter_max" : 4467.0933692788
        }
      },
      "is_potentially_hazardous_asteroid" : true,
      "close_approach_data" : [ {
        "close_approach_date" : "2008-03-22",
        "epoch_date_close_approach" : 1206169200000,
        "relative_velocity" : {
          "kilometers_per_second" : "21.4330233744",
          "kilometers_per_hour" : "77158.884147948",
          "miles_per_hour" : "47943.5299862625"
        },
        "miss_distance" : {
          "astronomical" : "0.4155705581",
          "lunar" : "161.6569519043",
          "kilometers" : "62168472",
          "miles" : "38629696"
        },
        "orbiting_body" : "Earth"
      } ],
      "orbital_data" : {
        "orbit_id" : "29",
        "orbit_determination_date" : "2017-04-06 09:05:17",
        "orbit_uncertainty" : "2",
        "minimum_orbit_intersection" : ".0389965",
        "jupiter_tisserand_invariant" : "3.212",
        "epoch_osculation" : "2458000.5",
        "eccentricity" : ".7394621061901668",
        "semi_major_axis" : "2.227233249932428",
        "inclination" : "5.947038736865689",
        "ascending_node_longitude" : "299.6920476146768",
        "orbital_period" : "1214.079089254192",
        "perihelion_distance" : ".5802786599606244",
        "perihelion_argument" : "245.0460564022358",
        "aphelion_distance" : "3.874187839904231",
        "perihelion_time" : "2458193.367332842566",
        "mean_anomaly" : "302.8107769601929",
        "mean_motion" : ".296521044787245",
        "equinox" : "J2000"
      }
    }, {
      "links" : {
        "self" : "https://api.nasa.gov/neo/rest/v1/neo/3606220?api_key=t0TVs3DtDT2H8Oy2Zy8m2eVrNsAVKAexjcZXUckd"
      },
      "neo_reference_id" : "3606220",
      "name" : "(2012 NN)",
      "nasa_jpl_url" : "http://ssd.jpl.nasa.gov/sbdb.cgi?sstr=3606220",
      "absolute_magnitude_h" : 20.9,
      "estimated_diameter" : {
        "kilometers" : {
          "estimated_diameter_min" : 0.1756123185,
          "estimated_diameter_max" : 0.3926810818
        },
        "meters" : {
          "estimated_diameter_min" : 175.6123184804,
          "estimated_diameter_max" : 392.6810818086
        },
        "miles" : {
          "estimated_diameter_min" : 0.1091204019,
          "estimated_diameter_max" : 0.2440006365
        },
        "feet" : {
          "estimated_diameter_min" : 576.1559189633,
          "estimated_diameter_max" : 1288.3238004408
        }
      },
      "is_potentially_hazardous_asteroid" : true,
      "close_approach_data" : [ {
        "close_approach_date" : "2008-03-22",
        "epoch_date_close_approach" : 1206169200000,
        "relative_velocity" : {
          "kilometers_per_second" : "22.4133951772",
          "kilometers_per_hour" : "80688.2226378973",
          "miles_per_hour" : "50136.5236718646"
        },
        "miss_distance" : {
          "astronomical" : "0.3872794798",
          "lunar" : "150.6517181396",
          "kilometers" : "57936188",
          "miles" : "35999876"
        },
        "orbiting_body" : "Earth"
      } ],
      "orbital_data" : {
        "orbit_id" : "32",
        "orbit_determination_date" : "2017-04-06 08:49:26",
        "orbit_uncertainty" : "1",
        "minimum_orbit_intersection" : ".0271048",
        "jupiter_tisserand_invariant" : "3.112",
        "epoch_osculation" : "2458000.5",
        "eccentricity" : ".6269365801468944",
        "semi_major_axis" : "2.57753880698179",
        "inclination" : "4.627261809449881",
        "ascending_node_longitude" : "237.5455638021854",
        "orbital_period" : "1511.493367699295",
        "perihelion_distance" : ".9615854421367206",
        "perihelion_argument" : "6.309558055346209",
        "aphelion_distance" : "4.193492171826859",
        "perihelion_time" : "2457595.791360384875",
        "mean_anomaly" : "96.39149821954786",
        "mean_motion" : ".2381750444250844",
        "equinox" : "J2000"
      }
    } ]
  }
}